CCSDS_OMM_VERS,COMMENT,CREATION_DATE,ORIGINATOR,OBJECT_NAME,OBJECT_ID,CENTER_NAME,REF_FRAME,TIME_SYSTEM,MEAN_ELEMENT_THEORY,EPOCH,MEAN_MOTION,ECCENTRICITY,INCLINATION,RA_OF_ASC_NODE,ARG_OF_PERICENTER,MEAN_ANOMALY,EPHEMERIS_TYPE,CLASSIFICATION_TYPE,NORAD_CAT_ID,ELEMENT_SET_NO,REV_AT_EPOCH,BSTAR,MEAN_MOTION_DOT,MEAN_MOTION_DDOT,SEMIMAJOR_AXIS,PERIOD,APOAPSIS,PERIAPSIS,OBJECT_TYPE,RCS_SIZE,COUNTRY_CODE,LAUNCH_DATE,SITE,DECAY_DATE,FILE,GP_ID,TLE_LINE0,TLE_LINE1,TLE_LINE2
"2.0","GENERATED VIA SPACE-TRACK.ORG API","2020-10-25T04:13:13","18 SPCS","STARLINK-1694","2020-070N","EARTH","TEME","UTC","SGP4","2020-10-24T22:00:20.000160","15.65402469","0.00010760","52.9920","351.3541","69.4620","240.5190","0","U","46544","999","183","-0.01292200000000","-0.01184762","0.0000000000000","6750.218","91.989","372.809","371.357","PAYLOAD","","US","2020-10-06","AFETR","","2860582","164174317","0 STARLINK-1694","1 46544U 20070N   20298.91689815 -.01184762 +00000-0 -12922-1 0  9998","2 46544 052.9920 351.3541 0001076 069.4620 240.5190 15.65402469001830"
"2.0","GENERATED VIA SPACE-TRACK.ORG API","2020-10-25T06:56:10","18 SPCS","STARLINK-1694","2020-070N","EARTH","TEME","UTC","SGP4","2020-10-25T06:00:02.000160","15.64529790","0.00012420","52.9907","349.7227","49.6778","338.1957","0","U","46544","999","377","-0.01279000000000","-0.01137237","0.0000000000000","6752.728","92.040","375.432","373.754","PAYLOAD","","US","2020-10-06","AFETR","","2860880","164181994","0 STARLINK-1694","1 46544U 20070N   20299.25002315 -.01137237  00000-0 -12790-1 0  9998","2 46544  52.9907 349.7227 0001242  49.6778 338.1957 15.64529790  3772"
"2.0","GENERATED VIA SPACE-TRACK.ORG API","2020-10-25T19:23:12","18 SPCS","STARLINK-1694","2020-070N","EARTH","TEME","UTC","SGP4","2020-10-25T14:00:01.000224","15.63684015","0.00013530","52.9908","348.0910","51.2374","54.6115","0","U","46544","999","182","-0.01204000000000","-0.01028258","0.0000000000000","6755.163","92.090","377.942","376.114","PAYLOAD","","US","2020-10-06","AFETR","","2861498","164217287","0 STARLINK-1694","1 46544U 20070N   20299.58334491 -.01028258 +00000-0 -12040-1 0  9997","2 46544 052.9908 348.0910 0001353 051.2374 054.6115 15.63684015001829"
"2.0","GENERATED VIA SPACE-TRACK.ORG API","2020-10-25T22:46:11","18 SPCS","STARLINK-1694","2020-070N","EARTH","TEME","UTC","SGP4","2020-10-25T20:00:01.000224","15.62881727","0.00012610","52.9909","346.8650","57.4937","16.2750","0","U","46544","999","386","-0.00222190000000","-0.00200060","0.0000000000000","6757.474","92.137","380.191","378.487","PAYLOAD","","US","2020-10-06","AFETR","","2861799","164224800","0 STARLINK-1694","1 46544U 20070N   20299.83334491 -.00200060  00000-0 -22219-2 0  9997","2 46544  52.9909 346.8650 0001261  57.4937  16.2750 15.62881727  3861"
"2.0","GENERATED VIA SPACE-TRACK.ORG API","2020-10-26T02:33:47","18 SPCS","STARLINK-1694","2020-070N","EARTH","TEME","UTC","SGP4","2020-10-25T22:00:00.999936","15.62766941","0.00012780","52.9892","346.4543","60.1419","122.7858","0","U","46544","999","177","-0.00028220000000","-0.00026304","0.0000000000000","6757.805","92.144","380.534","378.807","PAYLOAD","","US","2020-10-06","AFETR","","2861816","164246281","0 STARLINK-1694","1 46544U 20070N   20299.91667824 -.00026304 +00000-0 -28220-3 0  9991","2 46544 052.9892 346.4543 0001278 060.1419 122.7858 15.62766941001773"
"2.0","GENERATED VIA SPACE-TRACK.ORG API","2020-10-26T06:56:10","18 SPCS","STARLINK-1694","2020-070N","EARTH","TEME","UTC","SGP4","2020-10-26T06:00:00.999648","15.62751038","0.00012890","52.9893","344.8221","62.3218","197.0125","0","U","46544","999","393","0.00000286410000","-0.00000272","0.0000000000000","6757.851","92.145","380.587","378.845","PAYLOAD","","US","2020-10-06","AFETR","","2862039","164251241","0 STARLINK-1694","1 46544U 20070N   20300.25001157 -.00000272  00000-0  28641-5 0  9996","2 46544  52.9893 344.8221 0001289  62.3218 197.0125 15.62751038  3935"
"2.0","GENERATED VIA SPACE-TRACK.ORG API","2020-10-26T18:23:12","18 SPCS","STARLINK-1694","2020-070N","EARTH","TEME","UTC","SGP4","2020-10-26T14:00:01.999872","15.62815230","0.00013400","52.9950","343.1898","59.2813","276.7076","0","U","46544","999","178","-0.00053235000000","-0.00049104","0.0000000000000","6757.666","92.141","380.436","378.625","PAYLOAD","","US","2020-10-06","AFETR","","2862322","164277234","0 STARLINK-1694","1 46544U 20070N   20300.58335648 -.00049104 +00000-0 -53235-3 0  9990","2 46544 052.9950 343.1898 0001340 059.2813 276.7076 15.62815230001781"
"2.0","GENERATED VIA SPACE-TRACK.ORG API","2020-10-26T22:36:11","18 SPCS","STARLINK-1694","2020-070N","EARTH","TEME","UTC","SGP4","2020-10-26T20:00:01.000224","15.62778894","0.00011680","52.9957","341.9639","60.9783","242.2910","0","U","46544","999","402","0.00015232000000","0.00013450","0.0000000000000","6757.771","92.143","380.425","378.846","PAYLOAD","","US","2020-10-06","AFETR","","2862682","164283409","0 STARLINK-1694","1 46544U 20070N   20300.83334491  .00013450  00000-0  15232-3 0  9991","2 46544  52.9957 341.9639 0001168  60.9783 242.2910 15.62778894  4029"
"2.0","GENERATED VIA SPACE-TRACK.ORG API","2020-10-27T04:30:58","18 SPCS","STARLINK-1694","2020-070N","EARTH","TEME","UTC","SGP4","2020-10-26T22:00:00.999936","15.62643295","0.00007640","52.9948","341.5552","58.5010","354.0543","0","U","46544","999","177","-0.00430330000000","-0.00375264","0.0000000000000","6758.162","92.151","380.543","379.510","PAYLOAD","","US","2020-10-06","AFETR","","2862727","164304346","0 STARLINK-1694","1 46544U 20070N   20300.91667824 -.00375264 +00000-0 -43033-2 0  9994","2 46544 052.9948 341.5552 0000764 058.5010 354.0543 15.62643295001775"
"2.0","GENERATED VIA SPACE-TRACK.ORG API","2020-10-27T06:46:11","18 SPCS","STARLINK-1694","2020-070N","EARTH","TEME","UTC","SGP4","2020-10-27T06:00:00.999648","15.62752068","0.00012570","52.9939","339.9239","65.5529","62.9797","0","U","46544","999","408","-0.00000215420000","-0.00000731","0.0000000000000","6757.848","92.145","380.562","378.864","PAYLOAD","","US","2020-10-06","AFETR","","2863051","164312871","0 STARLINK-1694","1 46544U 20070N   20301.25001157 -.00000731  00000-0 -21542-5 0  9991","2 46544  52.9939 339.9239 0001257  65.5529  62.9797 15.62752068  4081"
"2.0","GENERATED VIA SPACE-TRACK.ORG API","2020-10-27T20:17:28","18 SPCS","STARLINK-1694","2020-070N","EARTH","TEME","UTC","SGP4","2020-10-27T14:00:01.000224","15.62777070","0.00015580","52.9979","338.2910","64.5112","140.9669","0","U","46544","999","177","-0.00020468000000","-0.00019250","0.0000000000000","6757.776","92.143","380.694","378.588","PAYLOAD","","US","2020-10-06","AFETR","","2863525","164343269","0 STARLINK-1694","1 46544U 20070N   20301.58334491 -.00019250 +00000-0 -20468-3 0  9997","2 46544 052.9979 338.2910 0001558 064.5112 140.9669 15.62777070001772"
"2.0","GENERATED VIA SPACE-TRACK.ORG API","2020-10-28T05:10:23","18 SPCS","STARLINK-1694","2020-070N","EARTH","TEME","UTC","SGP4","2020-10-27T22:00:01.999584","15.62724335","0.00013200","52.9989","336.6566","71.3087","210.6653","0","U","46544","999","177","0.00091485000000","0.00084010","0.0000000000000","6757.928","92.146","380.685","378.901","PAYLOAD","","US","2020-10-06","AFETR","","2863612","164365195","0 STARLINK-1694","1 46544U 20070N   20301.91668981 +.00084010 +00000-0 +91485-3 0  9999","2 46544 052.9989 336.6566 0001320 071.3087 210.6653 15.62724335001770"
"2.0","GENERATED VIA SPACE-TRACK.ORG API","2020-10-28T20:30:53","18 SPCS","STARLINK-1694","2020-070N","EARTH","TEME","UTC","SGP4","2020-10-28T14:00:01.000224","15.62697850","0.00016060","52.9974","333.3925","63.0246","11.8664","0","U","46544","999","177","-0.00090852000000","-0.00082706","0.0000000000000","6758.004","92.148","380.955","378.784","PAYLOAD","","US","2020-10-06","AFETR","","2864042","164394955","0 STARLINK-1694","1 46544U 20070N   20302.58334491 -.00082706 +00000-0 -90852-3 0  9998","2 46544 052.9974 333.3925 0001606 063.0246 011.8664 15.62697850001773"
"2.0","GENERATED VIA SPACE-TRACK.ORG API","2020-10-28T22:36:10","18 SPCS","STARLINK-1694","2020-070N","EARTH","TEME","UTC","SGP4","2020-10-28T20:00:01.999872","15.62632638","0.00017020","52.9985","332.1666","72.4926","329.6957","0","U","46544","999","433","0.00040296000000","0.00036355","0.0000000000000","6758.192","92.152","381.208","378.907","PAYLOAD","","US","2020-10-06","AFETR","","2864283","164400955","0 STARLINK-1694","1 46544U 20070N   20302.83335648  .00036355  00000-0  40296-3 0  9995","2 46544  52.9985 332.1666 0001702  72.4926 329.6957 15.62632638  4333"
"2.0","GENERATED VIA SPACE-TRACK.ORG API","2020-10-29T06:56:10","18 SPCS","STARLINK-1694","2020-070N","EARTH","TEME","UTC","SGP4","2020-10-29T06:00:00.999648","15.62833190","0.00012570","52.9989","330.1260","64.2659","163.5226","0","U","46544","999","440","0.00005156200000","0.00004204","0.0000000000000","6757.614","92.140","380.329","378.630","PAYLOAD","","US","2020-10-06","AFETR","","2864687","164409808","0 STARLINK-1694","1 46544U 20070N   20303.25001157  .00004204  00000-0  51562-4 0  9994","2 46544  52.9989 330.1260 0001257  64.2659 163.5226 15.62833190  4400"
"2.0","GENERATED VIA SPACE-TRACK.ORG API","2020-10-29T20:50:28","18 SPCS","STARLINK-1694","2020-070N","EARTH","TEME","UTC","SGP4","2020-10-29T14:00:01.000224","15.62824370","0.00012590","52.9995","328.4943","55.5666","248.7111","0","U","46544","999","177","0.00084682000000","0.00077970","0.0000000000000","6757.640","92.140","380.355","378.654","PAYLOAD","","US","2020-10-06","AFETR","","2865173","164440810","0 STARLINK-1694","1 46544U 20070N   20303.58334491 +.00077970 +00000-0 +84682-3 0  9998","2 46544 052.9995 328.4943 0001259 055.5666 248.7111 15.62824370001774"
